
# Worst residual: 131.21 km
# MJD 60765.000000 (2025 Mar 31  0:00)
C44Q3Q1 = A11kpPw
1 79888U 25000ZZQ 25090.49919926  .00000000  00000-0  00000-0 0 26508
2 79888 004.4986 173.8431 8041567 220.0011 215.8326 00.88263617    05

# Worst residual: 134.66 km
# MJD 60766.000000 (2025 Apr  1  0:00)
C44Q3Q1 = A11kpPw
1 79888U 25000ZZQ 25091.49919926  .00000000  00000-0  00000-0 0 26509
2 79888 004.3939 172.5100 8080999 222.1002 173.5058 00.88246529    01

# Worst residual: 110.62 km
# MJD 60767.000000 (2025 Apr  2  0:00)
C44Q3Q1 = A11kpPw
1 79888U 25000ZZQ 25092.49919926  .00000000  00000-0  00000-0 0 26500
2 79888 004.2889 170.9891 8128487 224.3922 131.2526 00.88309285    03

# Worst residual: 217.27 km
# MJD 60768.000000 (2025 Apr  3  0:00)
C44Q3Q1 = A11kpPw
1 79888U 25000ZZQ 25093.49919926  .00000000  00000-0  00000-0 0 26501
2 79888 004.1754 169.0957 8179216 226.9778 089.0652 00.88524093    04

# Worst residual: 175.97 km
# MJD 60769.000000 (2025 Apr  4  0:00)
C44Q3Q1 = A11kpPw
1 79888U 25000ZZQ 25094.49919926  .00000000  00000-0  00000-0 0 26502
2 79888 004.0519 166.8534 8222213 229.9201 046.7147 00.88827805    04

# Worst residual: 168.75 km
# MJD 60770.000000 (2025 Apr  5  0:00)
C44Q3Q1 = A11kpPw
1 79888U 25000ZZQ 25095.49919926  .00000000  00000-0  00000-0 0 26503
2 79888 003.9164 164.1491 8263892 233.3592 004.0403 00.89059325    08

# Worst residual: 269.88 km
# MJD 60771.000000 (2025 Apr  6  0:00)
C44Q3Q1 = A11kpPw
1 79888U 25000ZZQ 25096.49919926  .00000000  00000-0  00000-0 0 26504
2 79888 003.7572 160.6622 8308073 237.5477 321.3540 00.88926825    09

# Worst residual: 263.54 km
# MJD 60772.000000 (2025 Apr  7  0:00)
C44Q3Q1 = A11kpPw
1 79888U 25000ZZQ 25097.49919926  .00000000  00000-0  00000-0 0 26505
2 79888 003.6236 157.2458 8345111 241.5915 278.9244 00.88664986    05

# Worst residual: 141.46 km
# MJD 60773.000000 (2025 Apr  8  0:00)
C44Q3Q1 = A11kpPw
1 79888U 25000ZZQ 25098.49919926  .00000000  00000-0  00000-0 0 26506
2 79888 003.5159 153.9362 8368775 245.5213 236.6711 00.88420674    05

# Worst residual: 125.90 km
# MJD 60774.000000 (2025 Apr  9  0:00)
C44Q3Q1 = A11kpPw
1 79888U 25000ZZQ 25099.49919926  .00000000  00000-0  00000-0 0 26507
2 79888 003.4059 149.2030 8399649 250.9722 194.3514 00.88302097    01

# Worst residual: 129.91 km
# MJD 60775.000000 (2025 Apr 10  0:00)
C44Q3Q1 = A11kpPw
1 79888U 25000ZZQ 25100.49919926  .00000000  00000-0  00000-0 0 26500
2 79888 003.3483 144.8578 8431211 256.0555 152.1248 00.88263220    02

# Worst residual: 180.05 km
# MJD 60776.000000 (2025 Apr 11  0:00)
C44Q3Q1 = A11kpPw
1 79888U 25000ZZQ 25101.49919926  .00000000  00000-0  00000-0 0 26501
2 79888 003.3011 139.7282 8476546 261.8692 109.9352 00.88405819    08

# Worst residual: 209.75 km
# MJD 60777.000000 (2025 Apr 12  0:00)
C44Q3Q1 = A11kpPw
1 79888U 25000ZZQ 25102.49919926  .00000000  00000-0  00000-0 0 26502
2 79888 003.2897 133.6895 8518015 268.5566 067.7175 00.88655044    05
